{
    "links": {
        "self": "http://www.neowsapp.com/rest/v1/neo/3405334?api_key=iIulBulltgU6a56xZRHN4H3l9WmuAYTsLGpBGhQ2"
    },
    "id": "3405334",
    "neo_reference_id": "3405334",
    "name": "(2008 EF32)",
    "designation": "2008 EF32",
    "nasa_jpl_url": "http://ssd.jpl.nasa.gov/sbdb.cgi?sstr=3405334",
    "absolute_magnitude_h": 29.4,
    "estimated_diameter": {
        "kilometers": {
            "estimated_diameter_min": 0.0035039264,
            "estimated_diameter_max": 0.0078350176
        },
        "meters": {
            "estimated_diameter_min": 3.5039264111,
            "estimated_diameter_max": 7.8350176433
        },
        "miles": {
            "estimated_diameter_min": 0.0021772383,
            "estimated_diameter_max": 0.0048684527
        },
        "feet": {
            "estimated_diameter_min": 11.4958219265,
            "estimated_diameter_max": 25.705439285
        }
    },
    "is_potentially_hazardous_asteroid": false,
    "close_approach_data": [
        {
            "close_approach_date": "2008-03-09",
            "close_approach_date_full": "2008-Mar-09 22:01",
            "epoch_date_close_approach": 1205100060000,
            "relative_velocity": {
                "kilometers_per_second": "12.8789215865",
                "kilometers_per_hour": "46364.1177115372",
                "miles_per_hour": "28808.8596969271"
            },
            "miss_distance": {
                "astronomical": "0.0006142635",
                "lunar": "0.2389485015",
                "kilometers": "91892.511218745",
                "miles": "57099.358738881"
            },
            "orbiting_body": "Moon"
        },
        {
            "close_approach_date": "2008-03-10",
            "close_approach_date_full": "2008-Mar-10 05:24",
            "epoch_date_close_approach": 1205126640000,
            "relative_velocity": {
                "kilometers_per_second": "13.5709320181",
                "kilometers_per_hour": "48855.3552651992",
                "miles_per_hour": "30356.8178313123"
            },
            "miss_distance": {
                "astronomical": "0.0004412283",
                "lunar": "0.1716378087",
                "kilometers": "66006.813863721",
                "miles": "41014.7322565098"
            },
            "orbiting_body": "Earth"
        }
    ],
    "orbital_data": {
        "orbit_id": "6",
        "orbit_determination_date": "2017-04-06 09:04:03",
        "first_observation_date": "2008-03-11",
        "last_observation_date": "2008-03-11",
        "data_arc_in_days": null,
        "observations_used": 8,
        "orbit_uncertainty": "9",
        "minimum_orbit_intersection": ".000368558",
        "jupiter_tisserand_invariant": "4.150",
        "epoch_osculation": "2454536.5",
        "eccentricity": ".5221996655391459",
        "semi_major_axis": "1.627696427881879",
        "inclination": "1.73605607988179",
        "ascending_node_longitude": "349.1767368488075",
        "orbital_period": "758.5051650242198",
        "perihelion_distance": ".7777138976426992",
        "perihelion_argument": "112.269504727392",
        "aphelion_distance": "2.477678958121058",
        "perihelion_time": "2454489.771250769847",
        "mean_anomaly": "22.17829290894536",
        "mean_motion": ".4746177305048475",
        "equinox": "J2000",
        "orbit_class": {
            "orbit_class_type": "APO",
            "orbit_class_description": "Near-Earth asteroid orbits which cross the Earth’s orbit similar to that of 1862 Apollo",
            "orbit_class_range": "a (semi-major axis) > 1.0 AU; q (perihelion) < 1.017 AU"
        }
    },
    "is_sentry_object": false
}